{
    "links": {
        "self": "http://www.neowsapp.com/rest/v1/neo/54017140?api_key=iIulBulltgU6a56xZRHN4H3l9WmuAYTsLGpBGhQ2"
    },
    "id": "54017140",
    "neo_reference_id": "54017140",
    "name": "(2020 KD2)",
    "designation": "2020 KD2",
    "nasa_jpl_url": "http://ssd.jpl.nasa.gov/sbdb.cgi?sstr=54017140",
    "absolute_magnitude_h": 21.081,
    "estimated_diameter": {
        "kilometers": {
            "estimated_diameter_min": 0.1615678615,
            "estimated_diameter_max": 0.3612767212
        },
        "meters": {
            "estimated_diameter_min": 161.5678614551,
            "estimated_diameter_max": 361.2767211928
        },
        "miles": {
            "estimated_diameter_min": 0.1003935836,
            "estimated_diameter_max": 0.2244868775
        },
        "feet": {
            "estimated_diameter_min": 530.0783025762,
            "estimated_diameter_max": 1185.2911179582
        }
    },
    "is_potentially_hazardous_asteroid": false,
    "close_approach_data": [
        {
            "close_approach_date": "2018-06-12",
            "close_approach_date_full": "2018-Jun-12 06:02",
            "epoch_date_close_approach": 1528783320000,
            "relative_velocity": {
                "kilometers_per_second": "22.2086300246",
                "kilometers_per_hour": "79951.0680885942",
                "miles_per_hour": "49678.484502049"
            },
            "miss_distance": {
                "astronomical": "0.4277950335",
                "lunar": "166.4122680315",
                "kilometers": "63997225.808178645",
                "miles": "39766032.141789501"
            },
            "orbiting_body": "Earth"
        },
        {
            "close_approach_date": "2020-05-29",
            "close_approach_date_full": "2020-May-29 05:28",
            "epoch_date_close_approach": 1590730080000,
            "relative_velocity": {
                "kilometers_per_second": "16.7880926945",
                "kilometers_per_hour": "60437.1337002205",
                "miles_per_hour": "37553.2845483398"
            },
            "miss_distance": {
                "astronomical": "0.1384032964",
                "lunar": "53.8388822996",
                "kilometers": "20704838.342418668",
                "miles": "12865389.9699188984"
            },
            "orbiting_body": "Earth"
        },
        {
            "close_approach_date": "2022-05-16",
            "close_approach_date_full": "2022-May-16 10:58",
            "epoch_date_close_approach": 1652698680000,
            "relative_velocity": {
                "kilometers_per_second": "14.5326161196",
                "kilometers_per_hour": "52317.418030601",
                "miles_per_hour": "32508.0089979587"
            },
            "miss_distance": {
                "astronomical": "0.1893494665",
                "lunar": "73.6569424685",
                "kilometers": "28326276.874036355",
                "miles": "17601132.274177499"
            },
            "orbiting_body": "Earth"
        },
        {
            "close_approach_date": "2024-05-02",
            "close_approach_date_full": "2024-May-02 13:21",
            "epoch_date_close_approach": 1714656060000,
            "relative_velocity": {
                "kilometers_per_second": "16.7836165175",
                "kilometers_per_hour": "60421.0194631544",
                "miles_per_hour": "37543.2717880917"
            },
            "miss_distance": {
                "astronomical": "0.4828714433",
                "lunar": "187.8369914437",
                "kilometers": "72236539.401505771",
                "miles": "44885704.2063347998"
            },
            "orbiting_body": "Earth"
        },
        {
            "close_approach_date": "2184-06-05",
            "close_approach_date_full": "2184-Jun-05 06:32",
            "epoch_date_close_approach": 6766698720000,
            "relative_velocity": {
                "kilometers_per_second": "18.7844499391",
                "kilometers_per_hour": "67624.0197806736",
                "miles_per_hour": "42018.9360687191"
            },
            "miss_distance": {
                "astronomical": "0.2605528459",
                "lunar": "101.3550570551",
                "kilometers": "38978150.769078233",
                "miles": "24219899.7962282954"
            },
            "orbiting_body": "Earth"
        }
    ],
    "orbital_data": {
        "orbit_id": "14",
        "orbit_determination_date": "2020-06-23 15:04:53",
        "first_observation_date": "2020-05-19",
        "last_observation_date": "2020-06-19",
        "data_arc_in_days": 31,
        "observations_used": 113,
        "orbit_uncertainty": "7",
        "minimum_orbit_intersection": ".062344",
        "jupiter_tisserand_invariant": "4.250",
        "epoch_osculation": "2459000.5",
        "eccentricity": ".3452991226862246",
        "semi_major_axis": "1.562118914049603",
        "inclination": "26.66765728010735",
        "ascending_node_longitude": "64.94022205703122",
        "orbital_period": "713.1314061973055",
        "perihelion_distance": "1.022720623496717",
        "perihelion_argument": "142.8049705198813",
        "aphelion_distance": "2.101517204602489",
        "perihelion_time": "2458967.942711715779",
        "mean_anomaly": "16.43543347055569",
        "mean_motion": ".5048157981425334",
        "equinox": "J2000",
        "orbit_class": {
            "orbit_class_type": "AMO",
            "orbit_class_description": "Near-Earth asteroid orbits similar to that of 1221 Amor",
            "orbit_class_range": "1.017 AU < q (perihelion) < 1.3 AU"
        }
    },
    "is_sentry_object": false
}